NORAD_CAT_ID,OBJECT_NAME,OBJECT_TYPE,EPOCH,MEAN_MOTION,ECCENTRICITY,INCLINATION,RA_OF_ASC_NODE,ARG_OF_PERICENTER,MEAN_ANOMALY,BSTAR,MEAN_MOTION_DOT,MEAN_MOTION_DDOT,TLE_LINE0,TLE_LINE1,TLE_LINE2,SEMIMAJOR_AXIS,PERIOD,APOGEE,PERIGEE,DECAYED
49168.0,STARLINK-3101,PAYLOAD,2024-08-16 10:18:05,14.9833028,0.000225,70.0011,272.2731,274.5235,85.5667,0.00042583,4.992e-05,0.0,0 STARLINK-3101,1 49168U 21082AQ  24229.42922690  .00004992  00000-0  42583-3 0  9993,2 49168  70.0011 272.2731 0002250 274.5235  85.5667 14.98330280162251,6950.192,96.107,573.621,570.493,0.0
49168.0,STARLINK-3101,PAYLOAD,2024-08-17 07:07:49,14.98358319,0.0002393,70.001,270.0854,279.1603,80.9285,0.00082929,9.823e-05,0.0,0 STARLINK-3101,1 49168U 21082AQ  24230.29709747  .00009823  00000-0  82929-3 0  9992,2 49168  70.0010 270.0854 0002393 279.1603  80.9285 14.98358319162382,6950.105,96.105,573.633,570.307,0.0
49168.0,STARLINK-3101,PAYLOAD,2024-08-18 03:57:32,14.98357446,0.0002302,70.0006,267.8973,272.2894,87.8001,0.00025074,2.902e-05,0.0,0 STARLINK-3101,1 49168U 21082AQ  24231.16496293  .00002902  00000-0  25074-3 0  9997,2 49168  70.0006 267.8973 0002302 272.2894  87.8001 14.98357446162516,6950.108,96.105,573.573,570.373,0.0
49168.0,STARLINK-3101,PAYLOAD,2024-08-18 05:33:40,14.98354569,0.0002412,70.0002,267.7288,273.7219,86.3664,0.00017236,1.965e-05,0.0,0 STARLINK-3101,1 49168U 21082AQ  24231.23172295  .00001965  00000-0  17236-3 0  9997,2 49168  70.0002 267.7288 0002412 273.7219  86.3664 14.98354569162522,6950.117,96.105,573.658,570.306,0.0
49168.0,STARLINK-3101,PAYLOAD,2024-08-18 11:58:12,14.98352648,0.0002442,69.9997,267.0551,273.8802,86.2078,0.00014134,1.595e-05,0.0,0 STARLINK-3101,1 49168U 21082AQ  24231.49876027  .00001595  00000-0  14134-3 0  9992,2 49168  69.9997 267.0551 0002442 273.8802  86.2078 14.98352648162568,6950.123,96.106,573.685,570.291,0.0
49168.0,STARLINK-3101,PAYLOAD,2024-08-19 03:59:33,14.98342649,0.0002156,70.0003,265.3728,263.0272,97.0642,-0.00015386,-1.929e-05,0.0,0 STARLINK-3101,1 49168U 21082AQ  24232.16635755 -.00001929  00000-0 -15386-3 0  9991,2 49168  70.0003 265.3728 0002156 263.0272  97.0642 14.98342649162668,6950.154,96.106,573.517,570.52,0.0
49168.0,STARLINK-3101,PAYLOAD,2024-08-19 10:24:06,14.98335331,0.0002226,69.999,264.6983,265.3219,94.7686,-0.00015399,-1.93e-05,0.0,0 STARLINK-3101,1 49168U 21082AQ  24232.43340632 -.00001930  00000-0 -15399-3 0  9994,2 49168  69.9990 264.6983 0002226 265.3219  94.7686 14.98335331162706,6950.176,96.107,573.589,570.494,0.0
49168.0,STARLINK-3101,PAYLOAD,2024-08-20 04:01:34,14.98337592,0.0002416,69.9985,262.8446,268.095,91.9932,-3.8768e-05,-5.56e-06,0.0,0 STARLINK-3101,1 49168U 21082AQ  24233.16775741 -.00000556  00000-0 -38768-4 0  9997,2 49168  69.9985 262.8446 0002416 268.0950  91.9932 14.98337592162813,6950.169,96.107,573.714,570.355,0.0
49168.0,STARLINK-3101,PAYLOAD,2024-08-20 12:02:14,14.98337756,0.0002579,69.9984,262.0038,272.5195,87.5668,-1.1256e-05,-2.27e-06,0.0,0 STARLINK-3101,1 49168U 21082AQ  24233.50155525 -.00000227  00000-0 -11256-4 0  9995,2 49168  69.9984 262.0038 0002579 272.5195  87.5668 14.98337756162866,6950.169,96.107,573.826,570.241,0.0
49168.0,STARLINK-3101,PAYLOAD,2024-08-21 04:03:35,14.98330527,0.0002772,69.9982,260.32,276.1481,83.9362,7.3582e-05,7.85e-06,0.0,0 STARLINK-3101,1 49168U 21082AQ  24234.16915627  .00000785  00000-0  73582-4 0  9992,2 49168  69.9982 260.3200 0002772 276.1481  83.9362 14.98330527162960,6950.191,96.107,573.983,570.13,0.0
49168.0,STARLINK-3101,PAYLOAD,2024-08-21 12:04:15,14.98331695,0.0002754,69.9984,259.4786,275.8495,84.235,8.0433e-05,8.67e-06,0.0,0 STARLINK-3101,1 49168U 21082AQ  24234.50295541  .00000867  00000-0  80433-4 0  9990,2 49168  69.9984 259.4786 0002754 275.8495  84.2350 14.98331695163016,6950.188,96.107,573.967,570.139,0.0
49168.0,STARLINK-3101,PAYLOAD,2024-08-21 20:04:55,14.9833281,0.0002744,69.9985,258.6369,276.5809,83.5037,6.399e-05,6.71e-06,0.0,0 STARLINK-3101,1 49168U 21082AQ  24234.83675470  .00000671  00000-0  63990-4 0  9991,2 49168  69.9985 258.6369 0002744 276.5809  83.5037 14.98332810163060,6950.184,96.107,573.956,570.142,0.0
49168.0,STARLINK-3101,PAYLOAD,2024-08-22 04:05:36,14.98330077,0.0002796,69.9984,257.7952,276.7296,83.3545,1.5321e-05,9e-07,0.0,0 STARLINK-3101,1 49168U 21082AQ  24235.17055728  .00000090  00000-0  15321-4 0  9997,2 49168  69.9984 257.7952 0002796 276.7296  83.3545 14.98330077163117,6950.193,96.107,574.001,570.114,0.0
